NORAD_CAT_ID,OBJECT_NAME,OBJECT_TYPE,EPOCH,MEAN_MOTION,ECCENTRICITY,INCLINATION,RA_OF_ASC_NODE,ARG_OF_PERICENTER,MEAN_ANOMALY,BSTAR,MEAN_MOTION_DOT,MEAN_MOTION_DDOT,TLE_LINE0,TLE_LINE1,TLE_LINE2,SEMIMAJOR_AXIS,PERIOD,APOGEE,PERIGEE,DECAYED
55925.0,STARLINK-5922,PAYLOAD,2023-11-23 22:49:15,14.9831269,0.0002603,69.9993,254.095,260.4581,99.6284,-0.00021544,-2.661e-05,0.0,0 STARLINK-5922,1 55925U 23037M   23327.95086889 -.00002661  00000-0 -21544-3 0  9997,2 55925  69.9993 254.0950 0002603 260.4581  99.6284 14.98312690 38153,6950.246,96.108,573.921,570.302,0.0
55925.0,STARLINK-5922,PAYLOAD,2023-11-24 03:37:39,14.98306487,0.0002754,69.9991,253.5911,264.8999,95.1846,-0.00028335,-3.47e-05,0.0,0 STARLINK-5922,1 55925U 23037M   23328.15115658 -.00003470  00000-0 -28335-3 0  9991,2 55925  69.9991 253.5911 0002754 264.8999  95.1846 14.98306487 38523,6950.266,96.109,574.045,570.217,0.0
55925.0,STARLINK-5922,PAYLOAD,2023-11-24 05:13:47,14.9830823,0.00028,69.9991,253.4229,266.4068,93.6771,-0.0002596,-3.187e-05,0.0,0 STARLINK-5922,1 55925U 23037M   23328.21791585 -.00003187  00000-0 -25960-3 0  9993,2 55925  69.9991 253.4229 0002800 266.4068  93.6771 14.98308230 38192,6950.26,96.108,574.071,570.179,0.0
55925.0,STARLINK-5922,PAYLOAD,2023-11-24 19:39:00,14.98319562,0.0003015,69.9984,251.9046,284.9964,75.0862,-0.00013711,-1.728e-05,0.0,0 STARLINK-5922,1 55925U 23037M   23328.81875200 -.00001728  00000-0 -13711-3 0  9996,2 55925  69.9984 251.9046 0003015 284.9964  75.0862 14.98319562 38626,6950.225,96.108,574.186,569.995,0.0
55925.0,STARLINK-5922,PAYLOAD,2023-11-24 21:15:08,14.98318471,0.000292,69.9992,251.7363,272.5064,87.576,-0.00013069,-1.652e-05,0.0,0 STARLINK-5922,1 55925U 23037M   23328.88551159 -.00001652  00000-0 -13069-3 0  9999,2 55925  69.9992 251.7363 0002920 272.5064  87.5760 14.98318471 38299,6950.229,96.108,574.123,570.064,0.0
55925.0,STARLINK-5922,PAYLOAD,2023-11-25 03:39:39,14.98325134,0.0002562,70.0019,251.0698,223.7478,136.3478,-3.2571e-05,-4.81e-06,0.0,0 STARLINK-5922,1 55925U 23037M   23329.15254426 -.00000481  00000-0 -32571-4 0  9996,2 55925  70.0019 251.0698 0002562 223.7478 136.3478 14.98325134 38670,6950.208,96.107,573.854,570.292,0.0
55925.0,STARLINK-5922,PAYLOAD,2023-11-25 05:15:47,14.98330379,0.0002538,70.0005,250.8986,248.3637,111.7251,-4.0303e-05,-5.74e-06,0.0,0 STARLINK-5922,1 55925U 23037M   23329.21930252 -.00000574  00000-0 -40303-4 0  9996,2 55925  70.0005 250.8986 0002538 248.3637 111.7251 14.98330379 38342,6950.192,96.107,573.821,570.293,0.0
55925.0,STARLINK-5922,PAYLOAD,2023-11-25 21:17:07,14.98345351,0.0003087,69.9998,249.2132,267.2201,92.8605,-9.2529e-05,-1.197e-05,0.0,0 STARLINK-5922,1 55925U 23037M   23329.88689003 -.00001197  00000-0 -92529-4 0  9993,2 55925  69.9998 249.2132 0003087 267.2201  92.8605 14.98345351 38441,6950.145,96.106,574.156,569.865,0.0
55925.0,STARLINK-5922,PAYLOAD,2023-11-26 02:05:30,14.98358252,0.0002515,70.001,248.7106,233.7,126.3927,-0.00010374,-1.331e-05,0.0,0 STARLINK-5922,1 55925U 23037M   23330.08715921 -.00001331  00000-0 -10374-3 0  9993,2 55925  70.0010 248.7106 0002515 233.7000 126.3927 14.98358252 38819,6950.106,96.105,573.718,570.223,0.0
55925.0,STARLINK-5922,PAYLOAD,2023-11-26 05:17:46,14.98358325,0.0002762,70.0004,248.3745,252.9761,107.1096,4.2728e-05,4.17e-06,0.0,0 STARLINK-5922,1 55925U 23037M   23330.22067420  .00000417  00000-0  42728-4 0  9994,2 55925  70.0004 248.3745 0002762 252.9761 107.1096 14.98358325 38497,6950.105,96.105,573.89,570.051,0.0
55925.0,STARLINK-5922,PAYLOAD,2023-11-26 19:43:02,14.98306161,0.000308,70.0001,246.8552,261.5437,98.5373,-0.00012432,-1.575e-05,0.0,0 STARLINK-5922,1 55925U 23037M   23330.82155729 -.00001575  00000-0 -12432-3 0  9996,2 55925  70.0001 246.8552 0003080 261.5437  98.5373 14.98306161 38923,6950.267,96.109,574.272,569.991,0.0
55925.0,STARLINK-5922,PAYLOAD,2023-11-26 21:19:11,14.98300884,0.0002875,70.0003,246.6895,258.5523,101.5314,-0.00022983,-2.832e-05,0.0,0 STARLINK-5922,1 55925U 23037M   23330.88832429 -.00002832  00000-0 -22983-3 0  9990,2 55925  70.0003 246.6895 0002875 258.5523 101.5314 14.98300884 38595,6950.283,96.109,574.146,570.15,0.0
55925.0,STARLINK-5922,PAYLOAD,2023-11-27 03:43:43,14.98301895,0.0002513,70.0005,246.0155,240.2522,119.8387,-0.00015915,-1.99e-05,0.0,0 STARLINK-5922,1 55925U 23037M   23331.15536569 -.00001990  00000-0 -15915-3 0  9998,2 55925  70.0005 246.0155 0002513 240.2522 119.8387 14.98301895 38636,6950.28,96.109,573.891,570.398,0.0
55925.0,STARLINK-5922,PAYLOAD,2023-11-27 18:08:55,14.98327032,0.000265,69.9999,244.5023,241.5858,118.5035,-0.00015169,-1.902e-05,0.0,0 STARLINK-5922,1 55925U 23037M   23331.75619429 -.00001902  00000-0 -15169-3 0  9995,2 55925  69.9999 244.5023 0002650 241.5858 118.5035 14.98327032 39065,6950.202,96.107,573.909,570.225,0.0
55925.0,STARLINK-5922,PAYLOAD,2023-11-27 21:21:11,14.98325082,0.000264,70.0014,244.166,244.0582,116.0305,-5.5255e-05,-7.52e-06,0.0,0 STARLINK-5922,1 55925U 23037M   23331.88971332 -.00000752  00000-0 -55255-4 0  9996,2 55925  70.0014 244.1660 0002640 244.0582 116.0305 14.98325082 38740,6950.208,96.107,573.908,570.238,0.0
55925.0,STARLINK-5922,PAYLOAD,2023-11-28 02:09:34,14.98335847,0.0002891,70.0003,243.6616,224.9794,135.1131,-4.1004e-05,-5.82e-06,0.0,0 STARLINK-5922,1 55925U 23037M   23332.08998572 -.00000582  00000-0 -41004-4 0  9992,2 55925  70.0003 243.6616 0002891 224.9794 135.1131 14.98335847 39114,6950.175,96.107,574.049,570.031,0.0
55925.0,STARLINK-5922,PAYLOAD,2023-11-28 03:45:42,14.98341901,0.0002434,69.9993,243.4913,252.1229,107.9664,2.6691e-05,2.26e-06,0.0,0 STARLINK-5922,1 55925U 23037M   23332.15674169  .00000226  00000-0  26691-4 0  9991,2 55925  69.9993 243.4913 0002434 252.1229 107.9664 14.98341901 38784,6950.156,96.106,573.713,570.329,0.0
55925.0,STARLINK-5922,PAYLOAD,2023-11-28 19:47:03,14.98319758,0.000296,69.9997,241.807,257.4411,102.6417,0.00036919,4.314e-05,0.0,0 STARLINK-5922,1 55925U 23037M   23332.82434575  .00004314  00000-0  36919-3 0  9995,2 55925  69.9997 241.8070 0002960 257.4411 102.6417 14.98319758 39222,6950.225,96.108,574.147,570.032,0.0
55925.0,STARLINK-5922,PAYLOAD,2023-11-29 03:47:43,14.98330121,0.0002577,70.0003,240.9665,256.4003,103.6869,0.00045112,5.294e-05,0.0,0 STARLINK-5922,1 55925U 23037M   23333.15813921  .00005294  00000-0  45112-3 0  9991,2 55925  70.0003 240.9665 0002577 256.4003 103.6869 14.98330121 39277,6950.193,96.107,573.849,570.266,0.0
55925.0,STARLINK-5922,PAYLOAD,2023-11-29 19:49:04,14.98332268,0.0002801,70.0014,239.2881,255.5875,104.4973,7.6621e-05,8.21e-06,0.0,0 STARLINK-5922,1 55925U 23037M   23333.82574627  .00000821  00000-0  76621-4 0  9993,2 55925  70.0014 239.2881 0002801 255.5875 104.4973 14.98332268 39377,6950.186,96.107,573.998,570.104,0.0
55925.0,STARLINK-5922,PAYLOAD,2023-11-30 19:51:05,14.98331914,0.0002407,70.0004,236.7591,228.6589,131.4363,-2.772e-05,-4.24e-06,0.0,0 STARLINK-5922,1 55925U 23037M   23334.82714712 -.00000424  00000-0 -27720-4 0  9992,2 55925  70.0004 236.7591 0002407 228.6589 131.4363 14.98331914 39528,6950.187,96.107,573.725,570.379,0.0
55925.0,STARLINK-5922,PAYLOAD,2023-12-01 03:51:47,14.98315307,0.0002395,70.0005,235.9177,234.079,126.0147,-0.00020928,-2.588e-05,0.0,0 STARLINK-5922,1 55925U 23037M   23335.16096073 -.00002588  00000-0 -20928-3 0  9998,2 55925  70.0005 235.9177 0002395 234.0790 126.0147 14.98315307 39574,6950.238,96.108,573.768,570.439,0.0
55925.0,STARLINK-5922,PAYLOAD,2023-12-01 19:53:05,14.98334642,0.0002388,69.9997,234.2311,269.9002,90.1883,0.0001402,1.58e-05,0.0,0 STARLINK-5922,1 55925U 23037M   23335.82853939  .00001580  00000-0  14020-3 0  9998,2 55925  69.9997 234.2311 0002388 269.9002  90.1883 14.98334642 39670,6950.179,96.107,573.703,570.384,0.0
55925.0,STARLINK-5922,PAYLOAD,2023-12-01 21:29:13,14.98331821,0.0002598,69.9998,234.0612,273.2193,86.8669,0.00017481,1.994e-05,0.0,0 STARLINK-5922,1 55925U 23037M   23335.89529989  .00001994  00000-0  17481-3 0  9993,2 55925  69.9998 234.0612 0002598 273.2193  86.8669 14.98331821 39349,6950.187,96.107,573.858,570.247,0.0
55925.0,STARLINK-5922,PAYLOAD,2023-12-02 00:41:29,14.98338943,0.0002081,70.0011,233.7299,232.7792,127.3178,0.00019935,2.287e-05,0.0,0 STARLINK-5922,1 55925U 23037M   23336.02881380  .00002287  00000-0  19935-3 0  9997,2 55925  70.0011 233.7299 0002081 232.7792 127.3178 14.98338943 39705,6950.165,96.106,573.477,570.584,0.0
55925.0,STARLINK-5922,PAYLOAD,2023-12-02 03:53:44,14.98370503,0.0002232,70.0,233.3916,286.4478,73.6436,0.00010378,1.147e-05,0.0,0 STARLINK-5922,1 55925U 23037M   23336.16231601  .00001147  00000-0  10378-3 0  9993,2 55925  70.0000 233.3916 0002232 286.4478  73.6436 14.98370503 39720,6950.068,96.104,573.484,570.381,0.0
55925.0,STARLINK-5922,PAYLOAD,2023-12-02 19:55:10,14.98283356,0.0002747,69.9993,231.7075,279.1773,80.9075,-0.00041857,-5.078e-05,0.0,0 STARLINK-5922,1 55925U 23037M   23336.82998593 -.00005078  00000-0 -41857-3 0  9991,2 55925  69.9993 231.7075 0002747 279.1773  80.9075 14.98283356 39824,6950.337,96.11,574.111,570.293,0.0
55925.0,STARLINK-5922,PAYLOAD,2023-12-02 21:31:18,14.98282539,0.0002594,69.9995,231.5397,274.3058,85.7804,-0.00041315,-5.013e-05,0.0,0 STARLINK-5922,1 55925U 23037M   23336.89674761 -.00005013  00000-0 -41315-3 0  9994,2 55925  69.9995 231.5397 0002594 274.3058  85.7804 14.98282539 39492,6950.34,96.11,574.008,570.402,0.0
55925.0,STARLINK-5922,PAYLOAD,2023-12-03 02:19:43,14.98286561,0.0002475,69.9993,231.0349,275.3245,84.7632,-0.00034694,-4.225e-05,0.0,0 STARLINK-5922,1 55925U 23037M   23337.09702934 -.00004225  00000-0 -34694-3 0  9997,2 55925  69.9993 231.0349 0002475 275.3245  84.7632 14.98286561 39867,6950.327,96.11,573.912,570.472,0.0
55925.0,STARLINK-5922,PAYLOAD,2023-12-03 19:57:10,14.98325446,0.0001782,70.0044,229.1906,238.6108,121.4877,-5.352e-05,-7.31e-06,0.0,0 STARLINK-5922,1 55925U 23037M   23337.83136626 -.00000731  00000-0 -53520-4 0  9996,2 55925  70.0044 229.1906 0001782 238.6108 121.4877 14.98325446 39972,6950.207,96.107,573.311,570.833,0.0
